[{"OBJECT_NAME":"STARLINK-5274","OBJECT_ID":"2023-014E","EPOCH":"2026-03-09T09:12:35.477280","MEAN_MOTION":14.98326744,"ECCENTRICITY":0.00030905,"INCLINATION":70,"RA_OF_ASC_NODE":65.0584,"ARG_OF_PERICENTER":264.8556,"MEAN_ANOMALY":95.2251,"EPHEMERIS_TYPE":0,"CLASSIFICATION_TYPE":"U","NORAD_CAT_ID":55395,"ELEMENT_SET_NO":999,"REV_AT_EPOCH":17201,"BSTAR":-4.1288815e-5,"MEAN_MOTION_DOT":-5.86e-6,"MEAN_MOTION_DDOT":0},{"OBJECT_NAME":"MACSAT 2 (M 2)","OBJECT_ID":"1990-043B","EPOCH":"2026-03-09T23:13:24.152160","MEAN_MOTION":14.80502521,"ECCENTRICITY":0.00823046,"INCLINATION":89.7422,"RA_OF_ASC_NODE":248.3117,"ARG_OF_PERICENTER":163.6376,"MEAN_ANOMALY":196.7535,"EPHEMERIS_TYPE":0,"CLASSIFICATION_TYPE":"U","NORAD_CAT_ID":20608,"ELEMENT_SET_NO":999,"REV_AT_EPOCH":92371,"BSTAR":0.00022904722,"MEAN_MOTION_DOT":1.876e-5,"MEAN_MOTION_DDOT":0}]
